NORAD_CAT_ID,OBJECT_NAME,OBJECT_TYPE,EPOCH,MEAN_MOTION,ECCENTRICITY,INCLINATION,RA_OF_ASC_NODE,ARG_OF_PERICENTER,MEAN_ANOMALY,BSTAR,MEAN_MOTION_DOT,MEAN_MOTION_DDOT,TLE_LINE0,TLE_LINE1,TLE_LINE2,SEMIMAJOR_AXIS,PERIOD,APOGEE,PERIGEE,DECAYED
56473.0,STARLINK-5486,PAYLOAD,2024-02-21 11:28:25,14.98328595,0.0002911,70.0,208.4641,267.5632,92.5194,4.5669e-05,4.52e-06,0.0,0 STARLINK-5486,1 56473U 23064AB  24052.47807341  .00000452  00000-0  45669-4 0  9992,2 56473  70.0000 208.4641 0002911 267.5632  92.5194 14.98328595 44173,6950.197,96.107,574.085,570.039,0.0
56473.0,STARLINK-5486,PAYLOAD,2024-02-21 14:40:41,14.98328267,0.0002957,70.0001,208.1275,268.463,91.619,4.2702e-05,4.17e-06,0.0,0 STARLINK-5486,1 56473U 23064AB  24052.61159372  .00000417  00000-0  42702-4 0  9998,2 56473  70.0001 208.1275 0002957 268.4630  91.6190 14.98328267 43836,6950.198,96.107,574.118,570.008,0.0
56473.0,STARLINK-5486,PAYLOAD,2024-02-21 19:29:06,14.98323758,0.0003167,70.0003,207.6232,266.0903,93.9894,-1.6451e-05,-2.89e-06,0.0,0 STARLINK-5486,1 56473U 23064AB  24052.81187845 -.00000289  00000-0 -16451-4 0  9997,2 56473  70.0003 207.6232 0003167 266.0903  93.9894 14.98323758 43865,6950.212,96.107,574.278,569.876,0.0
56473.0,STARLINK-5486,PAYLOAD,2024-02-22 11:30:26,14.98329566,0.0003157,70.0004,205.94,265.1159,94.964,-2.8867e-05,-4.37e-06,0.0,0 STARLINK-5486,1 56473U 23064AB  24053.47947622 -.00000437  00000-0 -28867-4 0  9996,2 56473  70.0004 205.9400 0003157 265.1159  94.9640 14.98329566 44321,6950.194,96.107,574.253,569.865,0.0
56473.0,STARLINK-5486,PAYLOAD,2024-02-22 14:42:42,14.9832886,0.0003177,70.0,205.6029,265.8105,94.2691,-1.593e-05,-2.83e-06,0.0,0 STARLINK-5486,1 56473U 23064AB  24053.61299661 -.00000283  00000-0 -15930-4 0  9991,2 56473  70.0000 205.6029 0003177 265.8105  94.2691 14.98328860 43987,6950.196,96.107,574.269,569.853,0.0
56473.0,STARLINK-5486,PAYLOAD,2024-02-22 19:31:06,14.98333586,0.0003175,70.0,205.0982,266.184,93.8956,2.3867e-05,1.92e-06,0.0,0 STARLINK-5486,1 56473U 23064AB  24053.81327211  .00000192  00000-0  23867-4 0  9991,2 56473  70.0000 205.0982 0003175 266.1840  93.8956 14.98333586 44012,6950.182,96.107,574.253,569.84,0.0
56473.0,STARLINK-5486,PAYLOAD,2024-02-23 11:32:27,14.98329761,0.0003234,70.0004,203.4155,264.8075,95.2715,3.3887e-05,3.11e-06,0.0,0 STARLINK-5486,1 56473U 23064AB  24054.48087300  .00000311  00000-0  33887-4 0  9993,2 56473  70.0004 203.4155 0003234 264.8075  95.2715 14.98329761 44470,6950.194,96.107,574.306,569.811,0.0
56473.0,STARLINK-5486,PAYLOAD,2024-02-23 14:44:43,14.98330669,0.0003198,70.0002,203.0787,265.302,94.7774,2.3629e-05,1.89e-06,0.0,0 STARLINK-5486,1 56473U 23064AB  24054.61439281  .00000189  00000-0  23629-4 0  9993,2 56473  70.0002 203.0787 0003198 265.3020  94.7774 14.98330669 44131,6950.191,96.107,574.278,569.833,0.0
56473.0,STARLINK-5486,PAYLOAD,2024-02-23 19:33:06,14.98377116,0.0003535,70.0004,202.5739,264.88,95.1956,-0.00071611,-8.638e-05,0.0,0 STARLINK-5486,1 56473U 23064AB  24054.81466086 -.00008638  00000-0 -71611-3 0  9990,2 56473  70.0004 202.5739 0003535 264.8800  95.1956 14.98377116 44527,6950.047,96.104,574.369,569.455,0.0
56473.0,STARLINK-5486,PAYLOAD,2024-02-24 11:34:28,14.98329023,0.0003177,70.0004,200.8912,264.803,95.2766,-1.5868e-05,-2.82e-06,0.0,0 STARLINK-5486,1 56473U 23064AB  24055.48227487 -.00000282  00000-0 -15868-4 0  9994,2 56473  70.0004 200.8912 0003177 264.8030  95.2766 14.98329023 44623,6950.196,96.107,574.269,569.853,0.0
56473.0,STARLINK-5486,PAYLOAD,2024-02-24 13:10:36,14.98328946,0.0003179,70.0004,200.7229,264.7986,95.281,-1.65e-05,-2.9e-06,0.0,0 STARLINK-5486,1 56473U 23064AB  24055.54903494 -.00000290  00000-0 -16500-4 0  9993,2 56473  70.0004 200.7229 0003179 264.7986  95.2810 14.98328946 44278,6950.196,96.107,574.271,569.852,0.0
56473.0,STARLINK-5486,PAYLOAD,2024-02-24 19:35:08,14.98329314,0.000319,70.0005,200.0498,264.444,95.6355,-7.2594e-06,-1.8e-06,0.0,0 STARLINK-5486,1 56473U 23064AB  24055.81607448 -.00000180  00000-0 -72594-5 0  9997,2 56473  70.0005 200.0498 0003190 264.4440  95.6355 14.98329314 44318,6950.195,96.107,574.277,569.843,0.0
56473.0,STARLINK-5486,PAYLOAD,2024-02-25 11:36:29,14.98332763,0.0003233,70.0002,198.3643,271.4956,88.5833,3.8217e-06,-4.7e-07,0.0,0 STARLINK-5486,1 56473U 23064AB  24056.48367092 -.00000047  00000-0  38217-5 0  9994,2 56473  70.0002 198.3643 0003233 271.4956  88.5833 14.98332763 44778,6950.184,96.107,574.296,569.802,0.0
56473.0,STARLINK-5486,PAYLOAD,2024-02-25 14:48:45,14.98320348,0.0003116,70.0004,198.0277,270.4736,89.6066,0.00022169,2.552e-05,0.0,0 STARLINK-5486,1 56473U 23064AB  24056.61719191  .00002552  00000-0  22169-3 0  9999,2 56473  70.0004 198.0277 0003116 270.4736  89.6066 14.98320348 44434,6950.223,96.108,574.253,569.922,0.0
56473.0,STARLINK-5486,PAYLOAD,2024-02-25 19:37:08,14.98339412,0.0003073,70.0005,197.5246,263.9225,96.1584,5.4776e-05,5.61e-06,0.0,0 STARLINK-5486,1 56473U 23064AB  24056.81746384  .00000561  00000-0  54776-4 0  9993,2 56473  70.0005 197.5246 0003073 263.9225  96.1584 14.98339412 44820,6950.164,96.106,574.165,569.893,0.0
56473.0,STARLINK-5486,PAYLOAD,2024-02-26 02:01:41,14.98331224,0.0002912,70.0024,196.8483,274.2779,85.8047,-2.3583e-05,-3.74e-06,0.0,0 STARLINK-5486,1 56473U 23064AB  24057.08451127 -.00000374  00000-0 -23583-4 0  9997,2 56473  70.0024 196.8483 0002912 274.2779  85.8047 14.98331224 44862,6950.189,96.107,574.078,570.03,0.0
56473.0,STARLINK-5486,PAYLOAD,2024-02-26 14:50:46,14.98322567,0.0002983,70.0004,195.505,262.6876,97.3945,-6.6825e-05,-8.9e-06,0.0,0 STARLINK-5486,1 56473U 23064AB  24057.61859921 -.00000890  00000-0 -66825-4 0  9999,2 56473  70.0004 195.5050 0002983 262.6876  97.3945 14.98322567 44587,6950.216,96.107,574.154,570.008,0.0
56473.0,STARLINK-5486,PAYLOAD,2024-02-26 19:39:11,14.98321534,0.000306,70.0007,195.0006,260.9644,99.1169,-7.2329e-05,-9.56e-06,0.0,0 STARLINK-5486,1 56473U 23064AB  24057.81888054 -.00000956  00000-0 -72329-4 0  9999,2 56473  70.0007 195.0006 0003060 260.9644  99.1169 14.98321534 44971,6950.219,96.108,574.211,569.957,0.0
56473.0,STARLINK-5486,PAYLOAD,2024-02-27 11:40:33,14.98307082,0.000319,70.0,193.3156,266.6135,93.4659,-0.00033685,-4.108e-05,0.0,0 STARLINK-5486,1 56473U 23064AB  24058.48649918 -.00004108  00000-0 -33685-3 0  9991,2 56473  70.0000 193.3156 0003190 266.6135  93.4659 14.98307082 45078,6950.264,96.108,574.346,569.912,0.0
56473.0,STARLINK-5486,PAYLOAD,2024-02-27 14:52:49,14.98309148,0.00035,69.9991,192.9784,270.8272,89.2486,-0.00030312,-3.706e-05,0.0,0 STARLINK-5486,1 56473U 23064AB  24058.62001926 -.00003706  00000-0 -30312-3 0  9995,2 56473  69.9991 192.9784 0003500 270.8272  89.2486 14.98309148 44738,6950.257,96.108,574.555,569.69,0.0
56473.0,STARLINK-5486,PAYLOAD,2024-02-27 18:05:06,14.98306746,0.0003185,70.0,192.6423,268.341,91.7385,-0.00031345,-3.829e-05,0.0,0 STARLINK-5486,1 56473U 23064AB  24058.75354299 -.00003829  00000-0 -31345-3 0  9996,2 56473  70.0000 192.6423 0003185 268.3410  91.7385 14.98306746 44753,6950.265,96.108,574.343,569.916,0.0
56473.0,STARLINK-5486,PAYLOAD,2024-02-28 02:05:46,14.98317916,0.0003068,69.9996,191.7995,270.6164,89.4643,-0.00024024,-2.957e-05,0.0,0 STARLINK-5486,1 56473U 23064AB  24059.08733862 -.00002957  00000-0 -24024-3 0  9997,2 56473  69.9996 191.7995 0003068 270.6164  89.4643 14.98317916 45168,6950.23,96.108,574.228,569.963,0.0
56473.0,STARLINK-5486,PAYLOAD,2024-02-28 13:18:41,14.98323321,0.0003142,70.0007,190.6228,267.2708,92.8091,0.0001317,1.478e-05,0.0,0 STARLINK-5486,1 56473U 23064AB  24059.55464834  .00001478  00000-0  13170-3 0  9994,2 56473  70.0007 190.6228 0003142 267.2708  92.8091 14.98323321 45230,6950.214,96.107,574.262,569.895,0.0
56473.0,STARLINK-5486,PAYLOAD,2024-02-28 14:54:49,14.98325879,0.0003103,70.0009,190.4553,265.6562,94.4242,0.00014639,1.654e-05,0.0,0 STARLINK-5486,1 56473U 23064AB  24059.62140655  .00001654  00000-0  14639-3 0  9991,2 56473  70.0009 190.4553 0003103 265.6562  94.4242 14.98325879 44884,6950.206,96.107,574.227,569.914,0.0
56473.0,STARLINK-5486,PAYLOAD,2024-02-28 18:07:05,14.98331205,0.0003485,69.9995,190.1167,268.3005,91.7754,0.00016259,1.848e-05,0.0,0 STARLINK-5486,1 56473U 23064AB  24059.75492245  .00001848  00000-0  16259-3 0  9995,2 56473  69.9995 190.1167 0003485 268.3005  91.7754 14.98331205 44909,6950.189,96.107,574.476,569.632,0.0
56473.0,STARLINK-5486,PAYLOAD,2024-02-29 11:44:33,14.98331634,0.0003166,70.0005,188.2667,268.9978,91.0819,0.00042423,4.973e-05,0.0,0 STARLINK-5486,1 56473U 23064AB  24060.48927396  .00004973  00000-0  42423-3 0  9991,2 56473  70.0005 188.2667 0003166 268.9978  91.0819 14.98331634 45371,6950.188,96.107,574.253,569.852,0.0
56473.0,STARLINK-5486,PAYLOAD,2024-02-29 14:56:49,14.98335233,0.0003208,70.0005,187.9302,269.5529,90.5263,0.00044036,5.166e-05,0.0,0 STARLINK-5486,1 56473U 23064AB  24060.62279101  .00005166  00000-0  44036-3 0  9998,2 56473  70.0005 187.9302 0003208 269.5529  90.5263 14.98335233 45038,6950.177,96.107,574.271,569.812,0.0
56473.0,STARLINK-5486,PAYLOAD,2024-02-29 18:09:05,14.98337968,0.0003211,70.0004,187.5931,267.9858,92.0933,0.00046131,5.417e-05,0.0,0 STARLINK-5486,1 56473U 23064AB  24060.75630789  .00005417  00000-0  46131-3 0  9992,2 56473  70.0004 187.5931 0003211 267.9858  92.0933 14.98337968 45052,6950.168,96.106,574.265,569.802,0.0
56473.0,STARLINK-5486,PAYLOAD,2024-03-01 02:09:46,14.9832684,0.0002499,70.003,186.7511,278.7981,81.2895,0.00027781,3.223e-05,0.0,0 STARLINK-5486,1 56473U 23064AB  24061.09012215  .00003223  00000-0  27781-3 0  9991,2 56473  70.0030 186.7511 0002499 278.7981  81.2895 14.98326840 45469,6950.203,96.107,573.805,570.331,0.0
56473.0,STARLINK-5486,PAYLOAD,2024-03-01 13:22:42,14.98338614,0.0002993,70.0018,185.5745,271.6148,88.4668,1.2298e-05,5.4e-07,0.0,0 STARLINK-5486,1 56473U 23064AB  24061.55743769  .00000054  00000-0  12298-4 0  9994,2 56473  70.0018 185.5745 0002993 271.6148  88.4668 14.98338614 45174,6950.166,96.106,574.111,569.951,0.0
